[{"id":1, "sortname":"AF", "name":"Afghanistan", "phonecode":93, "region":"ASIA", "currency":"Afghani", "currency_code":"AFA", "capital":"Kabul"},
 {"id":2, "sortname":"AL", "name":"Albania", "phonecode":355, "region":"EUROPE", "currency":"Lek", "currency_code":"ALL", "capital":"Tirana"},
 {"id":3, "sortname":"DZ", "name":"Algeria", "phonecode":213, "region":"Northern Africa", "currency":"Algerian Dinar", "currency_code":"DZD", "capital":"Algiers"},
 {"id":4, "sortname":"AS", "name":"American Samoa", "phonecode":1684, "region":"OCEANIA", "currency":"US Dollar", "currency_code":"USD", "capital":"Pago Pago"},
 {"id":5, "sortname":"AD", "name":"Andorra", "phonecode":376, "region":"EUROPE", "currency":"Euro", "currency_code":"EUR", "capital":"Andorra la Vella"},
 {"id":6, "sortname":"AO", "name":"Angola", "phonecode":244, "region":"Middle Africa", "currency":"Kwanza", "currency_code":"AOA", "capital":"Luanda"},
 {"id":7, "sortname":"AI", "name":"Anguilla", "phonecode":1264, "region":"The Caribbean", "currency":"East Caribbean Dollar", "currency_code":"XCD", "capital":"The Valley"},
 {"id":8, "sortname":"AQ", "name":"Antarctica", "phonecode":0, "region":"", "currency":"", "currency_code":"", "capital":""},
 {"id":9, "sortname":"AG", "name":"Antigua And Barbuda", "phonecode":1268, "region":"The Caribbean", "currency":"East Caribbean Dollar", "currency_code":"XCD", "capital":"Saint John's"},
 {"id":10, "sortname":"AR", "name":"Argentina", "phonecode":54, "region":"South America", "currency":"Argentine Peso", "currency_code":"ARS", "capital":"Buenos Aires"},
 {"id":11, "sortname":"AM", "name":"Armenia", "phonecode":374, "region":"ASIA", "currency":"Armenian Dram", "currency_code":"AMD", "capital":"Yerevan"},
 {"id":12, "sortname":"AW", "name":"Aruba", "phonecode":297, "region":"The Caribbean", "currency":"Aruban Guilder", "currency_code":"AWG", "capital":"Oranjestad"},
 {"id":13, "sortname":"AU", "name":"Australia", "phonecode":61, "region":"OCEANIA", "currency":"Australian dollar", "currency_code":"AUD", "capital":"Canberra"},
 {"id":14, "sortname":"AT", "name":"Austria", "phonecode":43, "region":"EUROPE", "currency":"Euro", "currency_code":"EUR", "capital":"Vienna"},
 {"id":15, "sortname":"AZ", "name":"Azerbaijan", "phonecode":994, "region":"ASIA", "currency":"Azerbaijani Manat", "currency_code":"AZM", "capital":"Baku (Baki)"},
 {"id":16, "sortname":"BS", "name":"Bahamas The", "phonecode":1242, "region":"The Caribbean", "currency":"Bahamian Dollar", "currency_code":"BSD", "capital":"Nassau"},
 {"id":17, "sortname":"BH", "name":"Bahrain", "phonecode":973, "region":"MIDDLE EAST", "currency":"Bahraini Dinar", "currency_code":"BHD", "capital":"Manama"},
 {"id":18, "sortname":"BD", "name":"Bangladesh", "phonecode":880, "region":"ASIA", "currency":"Taka", "currency_code":"BDT", "capital":"Dhaka"},
 {"id":19, "sortname":"BB", "name":"Barbados", "phonecode":1246, "region":"The Caribbean", "currency":"Barbados Dollar", "currency_code":"BBD", "capital":"Bridgetown"},
 {"id":20, "sortname":"BY", "name":"Belarus", "phonecode":375, "region":"EUROPE", "currency":"Belarussian Ruble", "currency_code":"BYR", "capital":"Minsk"},
 {"id":21, "sortname":"BE", "name":"Belgium", "phonecode":32, "region":"EUROPE", "currency":"Euro", "currency_code":"EUR", "capital":"Brussels"},
 {"id":22, "sortname":"BZ", "name":"Belize", "phonecode":501, "region":"Central America", "currency":"Belize Dollar", "currency_code":"BZD", "capital":"Belmopan"},
 {"id":23, "sortname":"BJ", "name":"Benin", "phonecode":229, "region":"Western Africa", "currency":"CFA Franc BCEAO", "currency_code":"XOF", "capital":"Porto-Novo"},
 {"id":24, "sortname":"BM", "name":"Bermuda", "phonecode":1441, "region":"Northern America", "currency":"Bermudian Dollar", "currency_code":"BMD", "capital":"Hamilton"},
 {"id":25, "sortname":"BT", "name":"Bhutan", "phonecode":975, "region":"ASIA", "currency":"Ngultrum", "currency_code":"BTN", "capital":"Thimphu"},
 {"id":26, "sortname":"BO", "name":"Bolivia", "phonecode":591, "region":"South America", "currency":"Boliviano", "currency_code":"BOB", "capital":"La Paz /Sucre"},
 {"id":27, "sortname":"BA", "name":"Bosnia and Herzegovina", "phonecode":387, "region":"EUROPE", "currency":"Convertible Marka", "currency_code":"BAM", "capital":"Sarajevo"},
 {"id":28, "sortname":"BW", "name":"Botswana", "phonecode":267, "region":"Southern Africa", "currency":"Pula", "currency_code":"BWP", "capital":"Gaborone"},
 {"id":29, "sortname":"BV", "name":"Bouvet Island", "phonecode":0, "region":"", "currency":"Norwegian Krone", "currency_code":"NOK", "capital":""},
 {"id":30, "sortname":"BR", "name":"Brazil", "phonecode":55, "region":"South America", "currency":"Brazilian Real", "currency_code":"BRL", "capital":"Brasilia"},
 {"id":31, "sortname":"IO", "name":"British Indian Ocean Territory", "phonecode":246, "region":"", "currency":"US Dollar", "currency_code":"USD", "capital":""},
 {"id":32, "sortname":"BN", "name":"Brunei", "phonecode":673, "region":"", "currency":"", "currency_code":"", "capital":""},
 {"id":33, "sortname":"BG", "name":"Bulgaria", "phonecode":359, "region":"EUROPE", "currency":"Lev", "currency_code":"BGN", "capital":"Sofia"},
 {"id":34, "sortname":"BF", "name":"Burkina Faso", "phonecode":226, "region":"Western Africa", "currency":"CFA Franc BCEAO", "currency_code":"XOF", "capital":"Ouagadougou"},
 {"id":35, "sortname":"BI", "name":"Burundi", "phonecode":257, "region":"Africa", "currency":"Burundi Franc", "currency_code":"BIF", "capital":"Bujumbura"},
 {"id":36, "sortname":"KH", "name":"Cambodia", "phonecode":855, "region":"ASIA", "currency":"Riel", "currency_code":"KHR", "capital":"Phnom Penh"},
 {"id":37, "sortname":"CM", "name":"Cameroon", "phonecode":237, "region":"Middle Africa", "currency":"CFA Franc BEAC", "currency_code":"XAF", "capital":"Yaounde"},
 {"id":38, "sortname":"CA", "name":"Canada", "phonecode":1, "region":"Northern America", "currency":"Canadian Dollar", "currency_code":"CAD", "capital":"Ottawa"},
 {"id":39, "sortname":"CV", "name":"Cape Verde", "phonecode":238, "region":"Western Africa", "currency":"Cape Verdean Escudo", "currency_code":"CVE", "capital":"Praia"},
 {"id":40, "sortname":"KY", "name":"Cayman Islands", "phonecode":1345, "region":"The Caribbean", "currency":"Cayman Islands Dollar", "currency_code":"KYD", "capital":"George Town"},
 {"id":41, "sortname":"CF", "name":"Central African Republic", "phonecode":236, "region":"Middle Africa", "currency":"CFA Franc BEAC", "currency_code":"XAF", "capital":"Bangui"},
 {"id":42, "sortname":"TD", "name":"Chad", "phonecode":235, "region":"Middle Africa", "currency":"CFA Franc BEAC", "currency_code":"XAF", "capital":"N'Djamena"},
 {"id":43, "sortname":"CL", "name":"Chile", "phonecode":56, "region":"South America", "currency":"Chilean Peso", "currency_code":"CLP", "capital":"Santiago"},
 {"id":44, "sortname":"CN", "name":"China", "phonecode":86, "region":"ASIA", "currency":"Yuan Renminbi", "currency_code":"CNY", "capital":"Beijing"},
 {"id":45, "sortname":"CX", "name":"Christmas Island", "phonecode":61, "region":"", "currency":"Australian Dollar", "currency_code":"AUD", "capital":"The Settlement"},
 {"id":46, "sortname":"CC", "name":"Cocos (Keeling) Islands", "phonecode":672, "region":"", "currency":"Australian Dollar", "currency_code":"AUD", "capital":"West Island"},
 {"id":47, "sortname":"CO", "name":"Colombia", "phonecode":57, "region":"South America", "currency":"Colombian Peso", "currency_code":"COP", "capital":"Bogota"},
 {"id":48, "sortname":"KM", "name":"Comoros", "phonecode":269, "region":"Africa", "currency":"Comoro Franc", "currency_code":"KMF", "capital":"Moroni"},
 {"id":49, "sortname":"CG", "name":"Republic Of The Congo", "phonecode":242, "region":"", "currency":"", "currency_code":"", "capital":""},
 {"id":50, "sortname":"CD", "name":"Democratic Republic Of The Congo", "phonecode":242, "region":"", "currency":"", "currency_code":"", "capital":""},
 {"id":51, "sortname":"CK", "name":"Cook Islands", "phonecode":682, "region":"", "currency":"New Zealand Dollar", "currency_code":"NZD", "capital":"Avarua"},
 {"id":52, "sortname":"CR", "name":"Costa Rica", "phonecode":506, "region":"Central America", "currency":"Costa Rican Colon", "currency_code":"CRC", "capital":"San Jose"},
 {"id":53, "sortname":"CI", "name":"Cote D'Ivoire (Ivory Coast)", "phonecode":225, "region":"Western Africa", "currency":"CFA Franc BCEAO", "currency_code":"XOF", "capital":"Yamoussoukro"},
 {"id":54, "sortname":"HR", "name":"Croatia (Hrvatska)", "phonecode":385, "region":"EUROPE", "currency":"Kuna", "currency_code":"HRK", "capital":"Zagreb"},
 {"id":55, "sortname":"CU", "name":"Cuba", "phonecode":53, "region":"The Caribbean", "currency":"Cuban Peso", "currency_code":"CUP", "capital":"Havana"},
 {"id":56, "sortname":"CY", "name":"Cyprus", "phonecode":357, "region":"EUROPE", "currency":"Cyprus Pound", "currency_code":"CYP", "capital":"Nicosia"},
 {"id":57, "sortname":"CZ", "name":"Czech Republic", "phonecode":420, "region":"EUROPE", "currency":"Czech Koruna", "currency_code":"CZK", "capital":"Prague"},
 {"id":58, "sortname":"DK", "name":"Denmark", "phonecode":45, "region":"EUROPE", "currency":"Danish Krone", "currency_code":"DKK", "capital":"Copenhagen"},
 {"id":59, "sortname":"DJ", "name":"Djibouti", "phonecode":253, "region":"Africa", "currency":"Djibouti Franc", "currency_code":"DJF", "capital":"Djibouti"},
 {"id":60, "sortname":"DM", "name":"Dominica", "phonecode":1767, "region":"The Caribbean", "currency":"East Caribbean Dollar", "currency_code":"XCD", "capital":"Roseau"},
 {"id":61, "sortname":"DO", "name":"Dominican Republic", "phonecode":1809, "region":"The Caribbean", "currency":"Dominican Peso", "currency_code":"DOP", "capital":"Santo Domingo"},
 {"id":62, "sortname":"TP", "name":"East Timor", "phonecode":670, "region":"", "currency":"Timor Escudo", "currency_code":"TPE", "capital":""},
 {"id":63, "sortname":"EC", "name":"Ecuador", "phonecode":593, "region":"South America", "currency":"US Dollar", "currency_code":"USD", "capital":"Quito"},
 {"id":64, "sortname":"EG", "name":"Egypt", "phonecode":20, "region":"Northern Africa", "currency":"Egyptian Pound", "currency_code":"EGP", "capital":"Cairo"},
 {"id":65, "sortname":"SV", "name":"El Salvador", "phonecode":503, "region":"Central America", "currency":"El Salvador Colon", "currency_code":"SVC", "capital":"San Salvador"},
 {"id":66, "sortname":"GQ", "name":"Equatorial Guinea", "phonecode":240, "region":"Middle Africa", "currency":"CFA Franc BEAC", "currency_code":"XAF", "capital":"Malabo"},
 {"id":67, "sortname":"ER", "name":"Eritrea", "phonecode":291, "region":"Africa", "currency":"Nakfa", "currency_code":"ERN", "capital":"Asmara"},
 {"id":68, "sortname":"EE", "name":"Estonia", "phonecode":372, "region":"EUROPE", "currency":"Kroon", "currency_code":"EEK", "capital":"Tallinn"},
 {"id":69, "sortname":"ET", "name":"Ethiopia", "phonecode":251, "region":"Africa", "currency":"Ethiopian Birr", "currency_code":"ETB", "capital":"Addis Ababa"},
 {"id":70, "sortname":"XA", "name":"External Territories of Australia", "phonecode":61, "region":"", "currency":"", "currency_code":"", "capital":""},
 {"id":71, "sortname":"FK", "name":"Falkland Islands", "phonecode":500, "region":"", "currency":"", "currency_code":"", "capital":""},
 {"id":72, "sortname":"FO", "name":"Faroe Islands", "phonecode":298, "region":"EUROPE", "currency":"Danish Krone", "currency_code":"DKK", "capital":"Torshavn"},
 {"id":73, "sortname":"FJ", "name":"Fiji Islands", "phonecode":679, "region":"OCEANIA", "currency":"Fijian Dollar", "currency_code":"FJD", "capital":"Suva"},
 {"id":74, "sortname":"FI", "name":"Finland", "phonecode":358, "region":"EUROPE", "currency":"Euro", "currency_code":"EUR", "capital":"Helsinki"},
 {"id":75, "sortname":"FR", "name":"France", "phonecode":33, "region":"EUROPE", "currency":"Euro", "currency_code":"EUR", "capital":"Paris"},
 {"id":76, "sortname":"GF", "name":"French Guiana", "phonecode":594, "region":"South America", "currency":"Euro", "currency_code":"EUR", "capital":"Cayenne"},
 {"id":77, "sortname":"PF", "name":"French Polynesia", "phonecode":689, "region":"OCEANIA", "currency":"CFP Franc", "currency_code":"XPF", "capital":"Papeete"},
 {"id":78, "sortname":"TF", "name":"French Southern Territories", "phonecode":0, "region":"", "currency":"", "currency_code":"", "capital":""},
 {"id":79, "sortname":"GA", "name":"Gabon", "phonecode":241, "region":"Middle Africa", "currency":"CFA Franc BEAC", "currency_code":"XAF", "capital":"Libreville"},
 {"id":80, "sortname":"GM", "name":"Gambia The", "phonecode":220, "region":"", "currency":"", "currency_code":"", "capital":""},
 {"id":81, "sortname":"GE", "name":"Georgia", "phonecode":995, "region":"ASIA", "currency":"Lari", "currency_code":"GEL", "capital":"T'bilisi"},
 {"id":82, "sortname":"DE", "name":"Germany", "phonecode":49, "region":"EUROPE", "currency":"Euro", "currency_code":"EUR", "capital":"Berlin"},
 {"id":83, "sortname":"GH", "name":"Ghana", "phonecode":233, "region":"Western Africa", "currency":"Cedi", "currency_code":"GHC", "capital":"Accra"},
 {"id":84, "sortname":"GI", "name":"Gibraltar", "phonecode":350, "region":"EUROPE", "currency":"Gibraltar Pound", "currency_code":"GIP", "capital":"Gibraltar"},
 {"id":85, "sortname":"GR", "name":"Greece", "phonecode":30, "region":"EUROPE", "currency":"Euro", "currency_code":"EUR", "capital":"Athens"},
 {"id":86, "sortname":"GL", "name":"Greenland", "phonecode":299, "region":"Northern America", "currency":"Danish Krone", "currency_code":"DKK", "capital":"Nuuk"},
 {"id":87, "sortname":"GD", "name":"Grenada", "phonecode":1473, "region":"The Caribbean", "currency":"East Caribbean Dollar", "currency_code":"XCD", "capital":"Saint George's"},
 {"id":88, "sortname":"GP", "name":"Guadeloupe", "phonecode":590, "region":"The Caribbean", "currency":"Euro", "currency_code":"EUR", "capital":"Basse-Terre"},
 {"id":89, "sortname":"GU", "name":"Guam", "phonecode":1671, "region":"OCEANIA", "currency":"US Dollar", "currency_code":"USD", "capital":"Hagatna"},
 {"id":90, "sortname":"GT", "name":"Guatemala", "phonecode":502, "region":"Central America", "currency":"Quetzal", "currency_code":"GTQ", "capital":"Guatemala"},
 {"id":91, "sortname":"XU", "name":"Guernsey and Alderney", "phonecode":44, "region":"", "currency":"Pound Sterling", "currency_code":"GBP", "capital":"Saint Peter Port"},
 {"id":92, "sortname":"GN", "name":"Guinea", "phonecode":224, "region":"Western Africa", "currency":"Guinean Franc", "currency_code":"GNF", "capital":"Conakry"},
 {"id":93, "sortname":"GW", "name":"Guinea-Bissau", "phonecode":245, "region":"Western Africa", "currency":"CFA Franc BCEAO", "currency_code":"XOF", "capital":"Bissau"},
 {"id":94, "sortname":"GY", "name":"Guyana", "phonecode":592, "region":"South America", "currency":"Guyana Dollar", "currency_code":"GYD", "capital":"Georgetown"},
 {"id":95, "sortname":"HT", "name":"Haiti", "phonecode":509, "region":"The Caribbean", "currency":"Gourde", "currency_code":"HTG", "capital":"Port-au-Prince"},
 {"id":96, "sortname":"HM", "name":"Heard and McDonald Islands", "phonecode":0, "region":"", "currency":"", "currency_code":"", "capital":""},
 {"id":97, "sortname":"HN", "name":"Honduras", "phonecode":504, "region":"Central America", "currency":"Lempira", "currency_code":"HNL", "capital":"Tegucigalpa"},
 {"id":98, "sortname":"HK", "name":"Hong Kong S.A.R.", "phonecode":852, "region":"", "currency":"", "currency_code":"", "capital":""},
 {"id":99, "sortname":"HU", "name":"Hungary", "phonecode":36, "region":"EUROPE", "currency":"Forint", "currency_code":"HUF", "capital":"Budapest"},
 {"id":100, "sortname":"IS", "name":"Iceland", "phonecode":354, "region":"EUROPE", "currency":"Iceland Krona", "currency_code":"ISK", "capital":"Reykjavik"},
 {"id":101, "sortname":"IN", "name":"India", "phonecode":91, "region":"ASIA", "currency":"Indian Rupee", "currency_code":"INR", "capital":"New Delhi"},
 {"id":102, "sortname":"ID", "name":"Indonesia", "phonecode":62, "region":"ASIA", "currency":"Rupiah", "currency_code":"IDR", "capital":"Jakarta"},
 {"id":103, "sortname":"IR", "name":"Iran", "phonecode":98, "region":"MIDDLE EAST", "currency":"Iranian Rial", "currency_code":"IRR", "capital":"Tehran"},
 {"id":104, "sortname":"IQ", "name":"Iraq", "phonecode":964, "region":"MIDDLE EAST", "currency":"Iraqi Dinar", "currency_code":"IQD", "capital":"Baghdad"},
 {"id":105, "sortname":"IE", "name":"Ireland", "phonecode":353, "region":"EUROPE", "currency":"Euro", "currency_code":"EUR", "capital":"Dublin"},
 {"id":106, "sortname":"IL", "name":"Israel", "phonecode":972, "region":"MIDDLE EAST", "currency":"New Israeli Sheqel", "currency_code":"ILS", "capital":"Jerusalem"},
 {"id":107, "sortname":"IT", "name":"Italy", "phonecode":39, "region":"EUROPE", "currency":"Euro", "currency_code":"EUR", "capital":"Rome"},
 {"id":108, "sortname":"JM", "name":"Jamaica", "phonecode":1876, "region":"The Caribbean", "currency":"Jamaican dollar", "currency_code":"JMD", "capital":"Kingston"},
 {"id":109, "sortname":"JP", "name":"Japan", "phonecode":81, "region":"ASIA", "currency":"Yen", "currency_code":"JPY", "capital":"Tokyo"},
 {"id":110, "sortname":"XJ", "name":"Jersey", "phonecode":44, "region":"EUROPE", "currency":"Pound Sterling", "currency_code":"GBP", "capital":"Saint Helier"},
 {"id":111, "sortname":"JO", "name":"Jordan", "phonecode":962, "region":"MIDDLE EAST", "currency":"Jordanian Dinar", "currency_code":"JOD", "capital":"Amman"},
 {"id":112, "sortname":"KZ", "name":"Kazakhstan", "phonecode":7, "region":"ASIA", "currency":"Tenge", "currency_code":"KZT", "capital":"Astana"},
 {"id":113, "sortname":"KE", "name":"Kenya", "phonecode":254, "region":"Africa", "currency":"Kenyan shilling", "currency_code":"KES", "capital":"Nairobi"},
 {"id":114, "sortname":"KI", "name":"Kiribati", "phonecode":686, "region":"OCEANIA", "currency":"Australian dollar", "currency_code":"AUD", "capital":"Tarawa"},
 {"id":115, "sortname":"KP", "name":"Korea North", "phonecode":850, "region":"", "currency":"", "currency_code":"", "capital":""},
 {"id":116, "sortname":"KR", "name":"Korea South", "phonecode":82, "region":"", "currency":"", "currency_code":"", "capital":""},
 {"id":117, "sortname":"KW", "name":"Kuwait", "phonecode":965, "region":"MIDDLE EAST", "currency":"Kuwaiti Dinar", "currency_code":"KWD", "capital":"Kuwait"},
 {"id":118, "sortname":"KG", "name":"Kyrgyzstan", "phonecode":996, "region":"ASIA", "currency":"Som", "currency_code":"KGS", "capital":"Bishkek"},
 {"id":119, "sortname":"LA", "name":"Laos", "phonecode":856, "region":"ASIA", "currency":"Kip", "currency_code":"LAK", "capital":"Vientiane"},
 {"id":120, "sortname":"LV", "name":"Latvia", "phonecode":371, "region":"EUROPE", "currency":"Latvian Lats", "currency_code":"LVL", "capital":"Riga"},
 {"id":121, "sortname":"LB", "name":"Lebanon", "phonecode":961, "region":"MIDDLE EAST", "currency":"Lebanese Pound", "currency_code":"LBP", "capital":"Beirut"},
 {"id":122, "sortname":"LS", "name":"Lesotho", "phonecode":266, "region":"Southern Africa", "currency":"Loti", "currency_code":"LSL", "capital":"Maseru"},
 {"id":123, "sortname":"LR", "name":"Liberia", "phonecode":231, "region":"Western Africa", "currency":"Liberian Dollar", "currency_code":"LRD", "capital":"Monrovia"},
 {"id":124, "sortname":"LY", "name":"Libya", "phonecode":218, "region":"", "currency":"Libyan Dinar", "currency_code":"LYD", "capital":"Tripoli"},
 {"id":125, "sortname":"LI", "name":"Liechtenstein", "phonecode":423, "region":"EUROPE", "currency":"Swiss Franc", "currency_code":"CHF", "capital":"Vaduz"},
 {"id":126, "sortname":"LT", "name":"Lithuania", "phonecode":370, "region":"EUROPE", "currency":"Lithuanian Litas", "currency_code":"LTL", "capital":"Vilnius"},
 {"id":127, "sortname":"LU", "name":"Luxembourg", "phonecode":352, "region":"EUROPE", "currency":"Euro", "currency_code":"EUR", "capital":"Luxembourg"},
 {"id":128, "sortname":"MO", "name":"Macau S.A.R.", "phonecode":853, "region":"", "currency":"", "currency_code":"", "capital":""},
 {"id":129, "sortname":"MK", "name":"Macedonia", "phonecode":389, "region":"", "currency":"", "currency_code":"", "capital":""},
 {"id":130, "sortname":"MG", "name":"Madagascar", "phonecode":261, "region":"Africa", "currency":"Malagasy Franc", "currency_code":"MGF", "capital":"Antananarivo"},
 {"id":131, "sortname":"MW", "name":"Malawi", "phonecode":265, "region":"Africa", "currency":"Kwacha", "currency_code":"MWK", "capital":"Lilongwe"},
 {"id":132, "sortname":"MY", "name":"Malaysia", "phonecode":60, "region":"ASIA", "currency":"Malaysian Ringgit", "currency_code":"MYR", "capital":"Kuala Lumpur"},
 {"id":133, "sortname":"MV", "name":"Maldives", "phonecode":960, "region":"ASIA", "currency":"Rufiyaa", "currency_code":"MVR", "capital":"Male"},
 {"id":134, "sortname":"ML", "name":"Mali", "phonecode":223, "region":"Western Africa", "currency":"CFA Franc BCEAO", "currency_code":"XOF", "capital":"Bamako"},
 {"id":135, "sortname":"MT", "name":"Malta", "phonecode":356, "region":"EUROPE", "currency":"Euro", "currency_code":"EUR", "capital":"Valletta"},
 {"id":136, "sortname":"XM", "name":"Man (Isle of)", "phonecode":44, "region":"", "currency":"", "currency_code":"", "capital":""},
 {"id":137, "sortname":"MH", "name":"Marshall Islands", "phonecode":692, "region":"OCEANIA", "currency":"US Dollar", "currency_code":"USD", "capital":"Majuro"},
 {"id":138, "sortname":"MQ", "name":"Martinique", "phonecode":596, "region":"The Caribbean", "currency":"Euro", "currency_code":"EUR", "capital":"Fort-de-France"},
 {"id":139, "sortname":"MR", "name":"Mauritania", "phonecode":222, "region":"Western Africa", "currency":"Ouguiya", "currency_code":"MRO", "capital":"Nouakchott"},
 {"id":140, "sortname":"MU", "name":"Mauritius", "phonecode":230, "region":"Africa", "currency":"Mauritius Rupee", "currency_code":"MUR", "capital":"Port Louis"},
 {"id":141, "sortname":"YT", "name":"Mayotte", "phonecode":269, "region":"Africa", "currency":"Euro", "currency_code":"EUR", "capital":"Mamoutzou"},
 {"id":142, "sortname":"MX", "name":"Mexico", "phonecode":52, "region":"Central America", "currency":"Mexican Peso", "currency_code":"MXN", "capital":"Mexico"},
 {"id":143, "sortname":"FM", "name":"Micronesia", "phonecode":691, "region":"", "currency":"", "currency_code":"", "capital":""},
 {"id":144, "sortname":"MD", "name":"Moldova", "phonecode":373, "region":"EUROPE", "currency":"Moldovan Leu", "currency_code":"MDL", "capital":"Chisinau"},
 {"id":145, "sortname":"MC", "name":"Monaco", "phonecode":377, "region":"EUROPE", "currency":"Euro", "currency_code":"EUR", "capital":"Monaco"},
 {"id":146, "sortname":"MN", "name":"Mongolia", "phonecode":976, "region":"ASIA", "currency":"Tugrik", "currency_code":"MNT", "capital":"Ulaanbaatar"},
 {"id":147, "sortname":"MS", "name":"Montserrat", "phonecode":1664, "region":"", "currency":"East Caribbean Dollar", "currency_code":"XCD", "capital":"Plymouth"},
 {"id":148, "sortname":"MA", "name":"Morocco", "phonecode":212, "region":"", "currency":"Moroccan Dirham", "currency_code":"MAD", "capital":"Rabat"},
 {"id":149, "sortname":"MZ", "name":"Mozambique", "phonecode":258, "region":"Africa", "currency":"Metical", "currency_code":"MZM", "capital":"Maputo"},
 {"id":150, "sortname":"MM", "name":"Myanmar", "phonecode":95, "region":"ASIA", "currency":"Kyat", "currency_code":"MMK", "capital":""},
 {"id":151, "sortname":"NA", "name":"Namibia", "phonecode":264, "region":"Southern Africa", "currency":"Namibian Dollar", "currency_code":"NAD", "capital":"Windhoek"},
 {"id":152, "sortname":"NR", "name":"Nauru", "phonecode":674, "region":"", "currency":"Australian Dollar", "currency_code":"AUD", "capital":""},
 {"id":153, "sortname":"NP", "name":"Nepal", "phonecode":977, "region":"ASIA", "currency":"Nepalese Rupee", "currency_code":"NPR", "capital":"Kathmandu"},
 {"id":154, "sortname":"AN", "name":"Netherlands Antilles", "phonecode":599, "region":"", "currency":"Netherlands Antillean guilder", "currency_code":"ANG", "capital":"Willemstad"},
 {"id":155, "sortname":"NL", "name":"Netherlands The", "phonecode":31, "region":"", "currency":"", "currency_code":"", "capital":""},
 {"id":156, "sortname":"NC", "name":"New Caledonia", "phonecode":687, "region":"OCEANIA", "currency":"CFP Franc", "currency_code":"XPF", "capital":"Noumea"},
 {"id":157, "sortname":"NZ", "name":"New Zealand", "phonecode":64, "region":"OCEANIA", "currency":"New Zealand Dollar", "currency_code":"NZD", "capital":"Wellington"},
 {"id":158, "sortname":"NI", "name":"Nicaragua", "phonecode":505, "region":"Central America", "currency":"Cordoba Oro", "currency_code":"NIO", "capital":"Managua"},
 {"id":159, "sortname":"NE", "name":"Niger", "phonecode":227, "region":"Western Africa", "currency":"CFA Franc BCEAO", "currency_code":"XOF", "capital":"Niamey"},
 {"id":160, "sortname":"NG", "name":"Nigeria", "phonecode":234, "region":"Western Africa", "currency":"Naira", "currency_code":"NGN", "capital":"Abuja"},
 {"id":161, "sortname":"NU", "name":"Niue", "phonecode":683, "region":"", "currency":"New Zealand Dollar", "currency_code":"NZD", "capital":"Alofi"},
 {"id":162, "sortname":"NF", "name":"Norfolk Island", "phonecode":672, "region":"", "currency":"Australian Dollar", "currency_code":"AUD", "capital":"Kingston"},
 {"id":163, "sortname":"MP", "name":"Northern Mariana Islands", "phonecode":1670, "region":"", "currency":"US Dollar", "currency_code":"USD", "capital":"Saipan"},
 {"id":164, "sortname":"NO", "name":"Norway", "phonecode":47, "region":"EUROPE", "currency":"Norwegian Krone", "currency_code":"NOK", "capital":"Oslo"},
 {"id":165, "sortname":"OM", "name":"Oman", "phonecode":968, "region":"MIDDLE EAST", "currency":"Rial Omani", "currency_code":"OMR", "capital":"Muscat"},
 {"id":166, "sortname":"PK", "name":"Pakistan", "phonecode":92, "region":"ASIA", "currency":"Pakistan Rupee", "currency_code":"PKR", "capital":"Islamabad"},
 {"id":167, "sortname":"PW", "name":"Palau", "phonecode":680, "region":"", "currency":"US Dollar", "currency_code":"USD", "capital":"Koror"},
 {"id":168, "sortname":"PS", "name":"Palestinian Territory Occupied", "phonecode":970, "region":"", "currency":"", "currency_code":"", "capital":""},
 {"id":169, "sortname":"PA", "name":"Panama", "phonecode":507, "region":"Central America", "currency":"balboa", "currency_code":"PAB", "capital":"Panama"},
 {"id":170, "sortname":"PG", "name":"Papua new Guinea", "phonecode":675, "region":"OCEANIA", "currency":"Kina", "currency_code":"PGK", "capital":"Port Moresby"},
 {"id":171, "sortname":"PY", "name":"Paraguay", "phonecode":595, "region":"South America", "currency":"Guarani", "currency_code":"PYG", "capital":"Asuncion"},
 {"id":172, "sortname":"PE", "name":"Peru", "phonecode":51, "region":"South America", "currency":"Nuevo Sol", "currency_code":"PEN", "capital":"Lima"},
 {"id":173, "sortname":"PH", "name":"Philippines", "phonecode":63, "region":"", "currency":"Philippine Peso", "currency_code":"PHP", "capital":"Manila"},
 {"id":174, "sortname":"PN", "name":"Pitcairn Island", "phonecode":0, "region":"", "currency":"", "currency_code":"", "capital":""},
 {"id":175, "sortname":"PL", "name":"Poland", "phonecode":48, "region":"EUROPE", "currency":"Zloty", "currency_code":"PLN", "capital":"Warsaw"},
 {"id":176, "sortname":"PT", "name":"Portugal", "phonecode":351, "region":"EUROPE", "currency":"Euro", "currency_code":"EUR", "capital":"Lisbon"},
 {"id":177, "sortname":"PR", "name":"Puerto Rico", "phonecode":1787, "region":"The Caribbean", "currency":"US Dollar", "currency_code":"USD", "capital":"San Juan"},
 {"id":178, "sortname":"QA", "name":"Qatar", "phonecode":974, "region":"MIDDLE EAST", "currency":"Qatari Rial", "currency_code":"QAR", "capital":"Doha"},
 {"id":179, "sortname":"RE", "name":"Reunion", "phonecode":262, "region":"Africa", "currency":"Euro", "currency_code":"EUR", "capital":"Saint-Denis"},
 {"id":180, "sortname":"RO", "name":"Romania", "phonecode":40, "region":"EUROPE", "currency":"Leu", "currency_code":"ROL", "capital":"Bucharest"},
 {"id":181, "sortname":"RU", "name":"Russia", "phonecode":70, "region":"EUROPE", "currency":"Russian Ruble", "currency_code":"RUB", "capital":"Moscow"},
 {"id":182, "sortname":"RW", "name":"Rwanda", "phonecode":250, "region":"Africa", "currency":"Rwanda Franc", "currency_code":"RWF", "capital":"Kigali"},
 {"id":183, "sortname":"SH", "name":"Saint Helena", "phonecode":290, "region":"Western Africa", "currency":"Saint Helenian Pound", "currency_code":"SHP", "capital":"Jamestown"},
 {"id":184, "sortname":"KN", "name":"Saint Kitts And Nevis", "phonecode":1869, "region":"", "currency":"East Caribbean Dollar", "currency_code":"XCD", "capital":"Basseterre"},
 {"id":185, "sortname":"LC", "name":"Saint Lucia", "phonecode":1758, "region":"The Caribbean", "currency":"East Caribbean Dollar", "currency_code":"XCD", "capital":"Castries"},
 {"id":186, "sortname":"PM", "name":"Saint Pierre and Miquelon", "phonecode":508, "region":"Northern America", "currency":"Euro", "currency_code":"EUR", "capital":"Saint-Pierre"},
 {"id":187, "sortname":"VC", "name":"Saint Vincent And The Grenadines", "phonecode":1784, "region":"The Caribbean", "currency":"East Caribbean Dollar", "currency_code":"XCD", "capital":"Kingstown"},
 {"id":188, "sortname":"WS", "name":"Samoa", "phonecode":684, "region":"OCEANIA", "currency":"Tala", "currency_code":"WST", "capital":"Apia"},
 {"id":189, "sortname":"SM", "name":"San Marino", "phonecode":378, "region":"EUROPE", "currency":"Euro", "currency_code":"EUR", "capital":"San Marino"},
 {"id":190, "sortname":"ST", "name":"Sao Tome and Principe", "phonecode":239, "region":"Middle Africa", "currency":"Dobra", "currency_code":"STD", "capital":"Sao Tome"},
 {"id":191, "sortname":"SA", "name":"Saudi Arabia", "phonecode":966, "region":"MIDDLE EAST", "currency":"Saudi Riyal", "currency_code":"SAR", "capital":"Riyadh"},
 {"id":192, "sortname":"SN", "name":"Senegal", "phonecode":221, "region":"Western Africa", "currency":"CFA Franc BCEAO", "currency_code":"XOF", "capital":"Dakar"},
 {"id":193, "sortname":"RS", "name":"Serbia", "phonecode":381, "region":"EUROPE", "currency":"", "currency_code":"", "capital":""},
 {"id":194, "sortname":"SC", "name":"Seychelles", "phonecode":248, "region":"Africa", "currency":"Seychelles Rupee", "currency_code":"SCR", "capital":"Victoria"},
 {"id":195, "sortname":"SL", "name":"Sierra Leone", "phonecode":232, "region":"Western Africa", "currency":"Leone", "currency_code":"SLL", "capital":"Freetown"},
 {"id":196, "sortname":"SG", "name":"Singapore", "phonecode":65, "region":"ASIA", "currency":"Singapore Dollar", "currency_code":"SGD", "capital":"Singapore"},
 {"id":197, "sortname":"SK", "name":"Slovakia", "phonecode":421, "region":"EUROPE", "currency":"Euro", "currency_code":"EUR", "capital":"Bratislava"},
 {"id":198, "sortname":"SI", "name":"Slovenia", "phonecode":386, "region":"EUROPE", "currency":"Euro", "currency_code":"EUR", "capital":"Ljubljana"},
 {"id":199, "sortname":"XG", "name":"Smaller Territories of the UK", "phonecode":44, "region":"", "currency":"", "currency_code":"", "capital":""},
 {"id":200, "sortname":"SB", "name":"Solomon Islands", "phonecode":677, "region":"", "currency":"Solomon Islands Dollar", "currency_code":"SBD", "capital":"Honiara"},
 {"id":201, "sortname":"SO", "name":"Somalia", "phonecode":252, "region":"Africa", "currency":"Somali Shilling", "currency_code":"SOS", "capital":"Mogadishu"},
 {"id":202, "sortname":"ZA", "name":"South Africa", "phonecode":27, "region":"Southern Africa", "currency":"Rand", "currency_code":"ZAR", "capital":"Pretoria"},
 {"id":203, "sortname":"GS", "name":"South Georgia", "phonecode":0, "region":"", "currency":"", "currency_code":"", "capital":""},
 {"id":204, "sortname":"SS", "name":"South Sudan", "phonecode":211, "region":"", "currency":"", "currency_code":"", "capital":""},
 {"id":205, "sortname":"ES", "name":"Spain", "phonecode":34, "region":"EUROPE", "currency":"Euro", "currency_code":"EUR", "capital":"Madrid"},
 {"id":206, "sortname":"LK", "name":"Sri Lanka", "phonecode":94, "region":"ASIA", "currency":"Sri Lanka Rupee", "currency_code":"LKR", "capital":"Colombo"},
 {"id":207, "sortname":"SD", "name":"Sudan", "phonecode":249, "region":"Northern Africa", "currency":"Sudanese Dinar", "currency_code":"SDD", "capital":"Khartoum"},
 {"id":208, "sortname":"SR", "name":"Suriname", "phonecode":597, "region":"South America", "currency":"Suriname Guilder", "currency_code":"SRG", "capital":"Paramaribo"},
 {"id":209, "sortname":"SJ", "name":"Svalbard And Jan Mayen Islands", "phonecode":47, "region":"", "currency":"Norwegian Krone", "currency_code":"NOK", "capital":"Longyearbyen"},
 {"id":210, "sortname":"SZ", "name":"Swaziland", "phonecode":268, "region":"Southern Africa", "currency":"Lilangeni", "currency_code":"SZL", "capital":"Mbabane"},
 {"id":211, "sortname":"SE", "name":"Sweden", "phonecode":46, "region":"EUROPE", "currency":"Swedish Krona", "currency_code":"SEK", "capital":"Stockholm"},
 {"id":212, "sortname":"CH", "name":"Switzerland", "phonecode":41, "region":"EUROPE", "currency":"Swiss Franc", "currency_code":"CHF", "capital":"Bern"},
 {"id":213, "sortname":"SY", "name":"Syria", "phonecode":963, "region":"MIDDLE EAST", "currency":"Syrian Pound", "currency_code":"SYP", "capital":"Damascus"},
 {"id":214, "sortname":"TW", "name":"Taiwan", "phonecode":886, "region":"ASIA", "currency":"New Taiwan Dollar", "currency_code":"TWD", "capital":"Taipei"},
 {"id":215, "sortname":"TJ", "name":"Tajikistan", "phonecode":992, "region":"ASIA", "currency":"Somoni", "currency_code":"TJS", "capital":"Dushanbe"},
 {"id":216, "sortname":"TZ", "name":"Tanzania", "phonecode":255, "region":"", "currency":"Tanzanian Shilling", "currency_code":"TZS", "capital":"Dar es Salaam"},
 {"id":217, "sortname":"TH", "name":"Thailand", "phonecode":66, "region":"ASIA", "currency":"Baht", "currency_code":"THB", "capital":"Bangkok"},
 {"id":218, "sortname":"TG", "name":"Togo", "phonecode":228, "region":"Western Africa", "currency":"CFA Franc BCEAO", "currency_code":"XOF", "capital":"Lome"},
 {"id":219, "sortname":"TK", "name":"Tokelau", "phonecode":690, "region":"", "currency":"New Zealand Dollar", "currency_code":"NZD", "capital":""},
 {"id":220, "sortname":"TO", "name":"Tonga", "phonecode":676, "region":"OCEANIA", "currency":"Pa'anga", "currency_code":"TOP", "capital":"Nuku'alofa"},
 {"id":221, "sortname":"TT", "name":"Trinidad And Tobago", "phonecode":1868, "region":"The Caribbean", "currency":"Trinidad and Tobago Dollar", "currency_code":"TTD", "capital":"Port-of-Spain"},
 {"id":222, "sortname":"TN", "name":"Tunisia", "phonecode":216, "region":"Northern Africa", "currency":"Tunisian Dinar", "currency_code":"TND", "capital":"Tunis"},
 {"id":223, "sortname":"TR", "name":"Turkey", "phonecode":90, "region":"EUROPE", "currency":"Turkish Lira", "currency_code":"TRL", "capital":"Ankara"},
 {"id":224, "sortname":"TM", "name":"Turkmenistan", "phonecode":7370, "region":"ASIA", "currency":"Manat", "currency_code":"TMM", "capital":"Ashgabat"},
 {"id":225, "sortname":"TC", "name":"Turks And Caicos Islands", "phonecode":1649, "region":"The Caribbean", "currency":"US Dollar", "currency_code":"USD", "capital":"Cockburn Town"},
 {"id":226, "sortname":"TV", "name":"Tuvalu", "phonecode":688, "region":"", "currency":"Australian Dollar", "currency_code":"AUD", "capital":"Funafuti"},
 {"id":227, "sortname":"UG", "name":"Uganda", "phonecode":256, "region":"Africa", "currency":"Uganda Shilling", "currency_code":"UGX", "capital":"Kampala"},
 {"id":228, "sortname":"UA", "name":"Ukraine", "phonecode":380, "region":"EUROPE", "currency":"Hryvnia", "currency_code":"UAH", "capital":"Kiev"},
 {"id":229, "sortname":"AE", "name":"United Arab Emirates", "phonecode":971, "region":"MIDDLE EAST", "currency":"UAE Dirham", "currency_code":"AED", "capital":"Abu Dhabi"},
 {"id":230, "sortname":"GB", "name":"United Kingdom", "phonecode":44, "region":"EUROPE", "currency":"Pound Sterling", "currency_code":"GBP", "capital":"London"},
 {"id":231, "sortname":"US", "name":"United States", "phonecode":1, "region":"Northern America", "currency":"US Dollar", "currency_code":"USD", "capital":"Washington, DC"},
 {"id":232, "sortname":"UM", "name":"United States Minor Outlying Islands", "phonecode":1, "region":"", "currency":"", "currency_code":"", "capital":""},
 {"id":233, "sortname":"UY", "name":"Uruguay", "phonecode":598, "region":"South America", "currency":"Peso Uruguayo", "currency_code":"UYU", "capital":"Montevideo"},
 {"id":234, "sortname":"UZ", "name":"Uzbekistan", "phonecode":998, "region":"ASIA", "currency":"Uzbekistan Sum", "currency_code":"UZS", "capital":"Tashkent"},
 {"id":235, "sortname":"VU", "name":"Vanuatu", "phonecode":678, "region":"OCEANIA", "currency":"Vatu", "currency_code":"VUV", "capital":"Port-Vila"},
 {"id":236, "sortname":"VA", "name":"Vatican City State (Holy See)", "phonecode":39, "region":"", "currency":"", "currency_code":"", "capital":""},
 {"id":237, "sortname":"VE", "name":"Venezuela", "phonecode":58, "region":"South America", "currency":"Bolivar", "currency_code":"VEB", "capital":"Caracas"},
 {"id":238, "sortname":"VN", "name":"Vietnam", "phonecode":84, "region":"ASIA", "currency":"Dong", "currency_code":"VND", "capital":"Hanoi"},
 {"id":239, "sortname":"VG", "name":"Virgin Islands (British)", "phonecode":1284, "region":"", "currency":"US Dollar", "currency_code":"USD", "capital":"Charlotte Amalie"},
 {"id":240, "sortname":"VI", "name":"Virgin Islands (US)", "phonecode":1340, "region":"The Caribbean", "currency":"US Dollar", "currency_code":"USD", "capital":""},
 {"id":241, "sortname":"WF", "name":"Wallis And Futuna Islands", "phonecode":681, "region":"", "currency":"CFP Franc", "currency_code":"XPF", "capital":"Mata-Utu"},
 {"id":242, "sortname":"EH", "name":"Western Sahara", "phonecode":212, "region":"Northern Africa", "currency":"Moroccan Dirham", "currency_code":"MAD", "capital":""},
 {"id":243, "sortname":"YE", "name":"Yemen", "phonecode":967, "region":"MIDDLE EAST", "currency":"Yemeni Rial", "currency_code":"YER", "capital":"Sanaa"},
 {"id":244, "sortname":"YU", "name":"Yugoslavia", "phonecode":38, "region":"", "currency":"Yugoslavian Dinar", "currency_code":"YUM", "capital":"Belgrade"},
 {"id":245, "sortname":"ZM", "name":"Zambia", "phonecode":260, "region":"Africa", "currency":"Kwacha", "currency_code":"ZMK", "capital":"Lusaka"},
 {"id":246, "sortname":"ZW", "name":"Zimbabwe", "phonecode":263, "region":"Africa", "currency":"Zimbabwe Dollar", "currency_code":"ZWD", "capital":"Harare"},
 {"id":247, "sortname":"afr", "name":"african", "phonecode":2423243, "region":"Africa", "currency":"dollar", "currency_code":"123123", "capital":""}]
